[{"OBJECT_NAME":"STARLINK-36807","OBJECT_ID":"2026-032P","EPOCH":"2026-03-12T23:11:25.628640","MEAN_MOTION":15.75287867,"ECCENTRICITY":0.0002528,"INCLINATION":97.2845,"RA_OF_ASC_NODE":258.6812,"ARG_OF_PERICENTER":60.0571,"MEAN_ANOMALY":300.0945,"EPHEMERIS_TYPE":0,"CLASSIFICATION_TYPE":"U","NORAD_CAT_ID":67810,"ELEMENT_SET_NO":999,"REV_AT_EPOCH":530,"BSTAR":0.00086088106,"MEAN_MOTION_DOT":0.00130826,"MEAN_MOTION_DDOT":0},{"OBJECT_NAME":"STARLINK-36733","OBJECT_ID":"2026-032Q","EPOCH":"2026-03-12T22:00:01.999584","MEAN_MOTION":15.75103406,"ECCENTRICITY":0.0001297,"INCLINATION":97.2842,"RA_OF_ASC_NODE":258.6519,"ARG_OF_PERICENTER":94.3526,"MEAN_ANOMALY":38.8872,"EPHEMERIS_TYPE":0,"CLASSIFICATION_TYPE":"U","NORAD_CAT_ID":67811,"ELEMENT_SET_NO":999,"REV_AT_EPOCH":530,"BSTAR":0.0011239887,"MEAN_MOTION_DOT":0.00170266,"MEAN_MOTION_DDOT":0},{"OBJECT_NAME":"STARLINK-36377","OBJECT_ID":"2026-032R","EPOCH":"2026-03-12T22:54:08.280864","MEAN_MOTION":15.75236077,"ECCENTRICITY":0.00017141,"INCLINATION":97.2848,"RA_OF_ASC_NODE":258.6975,"ARG_OF_PERICENTER":89.3538,"MEAN_ANOMALY":270.7924,"EPHEMERIS_TYPE":0,"CLASSIFICATION_TYPE":"U","NORAD_CAT_ID":67812,"ELEMENT_SET_NO":999,"REV_AT_EPOCH":530,"BSTAR":0.00094340687,"MEAN_MOTION_DOT":0.00143257,"MEAN_MOTION_DDOT":0},{"OBJECT_NAME":"STARLINK-36732","OBJECT_ID":"2026-032S","EPOCH":"2026-03-12T23:01:15.162528","MEAN_MOTION":15.75219822,"ECCENTRICITY":0.00013048,"INCLINATION":97.2848,"RA_OF_ASC_NODE":258.6897,"ARG_OF_PERICENTER":80.6935,"MEAN_ANOMALY":279.4478,"EPHEMERIS_TYPE":0,"CLASSIFICATION_TYPE":"U","NORAD_CAT_ID":67813,"ELEMENT_SET_NO":999,"REV_AT_EPOCH":530,"BSTAR":0.00066053787,"MEAN_MOTION_DOT":0.00099679,"MEAN_MOTION_DDOT":0},{"OBJECT_NAME":"STARLINK-36767","OBJECT_ID":"2026-032T","EPOCH":"2026-03-12T23:29:42.819648","MEAN_MOTION":15.75212523,"ECCENTRICITY":0.0001892,"INCLINATION":97.2833,"RA_OF_ASC_NODE":258.6623,"ARG_OF_PERICENTER":105.0348,"MEAN_ANOMALY":255.1127,"EPHEMERIS_TYPE":0,"CLASSIFICATION_TYPE":"U","NORAD_CAT_ID":67814,"ELEMENT_SET_NO":999,"REV_AT_EPOCH":530,"BSTAR":0.00069991407,"MEAN_MOTION_DOT":0.00105674,"MEAN_MOTION_DDOT":0},{"OBJECT_NAME":"STARLINK-36797","OBJECT_ID":"2026-032U","EPOCH":"2026-03-12T23:17:00.483072","MEAN_MOTION":15.75217441,"ECCENTRICITY":0.0001724,"INCLINATION":97.2841,"RA_OF_ASC_NODE":258.6757,"ARG_OF_PERICENTER":84.1488,"MEAN_ANOMALY":275.9974,"EPHEMERIS_TYPE":0,"CLASSIFICATION_TYPE":"U","NORAD_CAT_ID":67815,"ELEMENT_SET_NO":999,"REV_AT_EPOCH":530,"BSTAR":0.00057214636,"MEAN_MOTION_DOT":0.00086179,"MEAN_MOTION_DDOT":0},{"OBJECT_NAME":"STARLINK-36343","OBJECT_ID":"2026-032V","EPOCH":"2026-03-12T22:48:32.724864","MEAN_MOTION":15.75244015,"ECCENTRICITY":0.00012269,"INCLINATION":97.2849,"RA_OF_ASC_NODE":258.701,"ARG_OF_PERICENTER":81.2594,"MEAN_ANOMALY":278.881,"EPHEMERIS_TYPE":0,"CLASSIFICATION_TYPE":"U","NORAD_CAT_ID":67816,"ELEMENT_SET_NO":999,"REV_AT_EPOCH":530,"BSTAR":0.00096193522,"MEAN_MOTION_DOT":0.00146171,"MEAN_MOTION_DDOT":0},{"OBJECT_NAME":"STARLINK-36756","OBJECT_ID":"2026-032W","EPOCH":"2026-03-12T23:04:18.345216","MEAN_MOTION":15.75249489,"ECCENTRICITY":0.00022043,"INCLINATION":97.2842,"RA_OF_ASC_NODE":258.6865,"ARG_OF_PERICENTER":81.0956,"MEAN_ANOMALY":279.0559,"EPHEMERIS_TYPE":0,"CLASSIFICATION_TYPE":"U","NORAD_CAT_ID":67817,"ELEMENT_SET_NO":999,"REV_AT_EPOCH":529,"BSTAR":0.0012566534,"MEAN_MOTION_DOT":0.00192085,"MEAN_MOTION_DDOT":0},{"OBJECT_NAME":"STARLINK-36346","OBJECT_ID":"2026-032X","EPOCH":"2026-03-12T22:42:26.813088","MEAN_MOTION":15.75267084,"ECCENTRICITY":0.00016078,"INCLINATION":97.2849,"RA_OF_ASC_NODE":258.7077,"ARG_OF_PERICENTER":74.7881,"MEAN_ANOMALY":285.3562,"EPHEMERIS_TYPE":0,"CLASSIFICATION_TYPE":"U","NORAD_CAT_ID":67818,"ELEMENT_SET_NO":999,"REV_AT_EPOCH":530,"BSTAR":0.0014008586,"MEAN_MOTION_DOT":0.00214875,"MEAN_MOTION_DDOT":0},{"OBJECT_NAME":"STARLINK-36788","OBJECT_ID":"2026-032Y","EPOCH":"2026-03-12T21:48:34.215840","MEAN_MOTION":15.7525989,"ECCENTRICITY":0.00012423,"INCLINATION":97.284,"RA_OF_ASC_NODE":258.6055,"ARG_OF_PERICENTER":120.4882,"MEAN_ANOMALY":239.6506,"EPHEMERIS_TYPE":0,"CLASSIFICATION_TYPE":"U","NORAD_CAT_ID":67819,"ELEMENT_SET_NO":999,"REV_AT_EPOCH":529,"BSTAR":0.0010987245,"MEAN_MOTION_DOT":0.00167511,"MEAN_MOTION_DDOT":0},{"OBJECT_NAME":"STARLINK-36353","OBJECT_ID":"2026-032Z","EPOCH":"2026-03-12T23:14:27.792672","MEAN_MOTION":15.75202121,"ECCENTRICITY":0.000172,"INCLINATION":97.284,"RA_OF_ASC_NODE":258.6768,"ARG_OF_PERICENTER":98,"MEAN_ANOMALY":262.1461,"EPHEMERIS_TYPE":0,"CLASSIFICATION_TYPE":"U","NORAD_CAT_ID":67820,"ELEMENT_SET_NO":999,"REV_AT_EPOCH":530,"BSTAR":0.00029399629,"MEAN_MOTION_DOT":0.00043972,"MEAN_MOTION_DDOT":0},{"OBJECT_NAME":"STARLINK-36644","OBJECT_ID":"2026-033A","EPOCH":"2026-03-12T22:00:01.999584","MEAN_MOTION":15.7600842,"ECCENTRICITY":0.0001532,"INCLINATION":42.9993,"RA_OF_ASC_NODE":251.7906,"ARG_OF_PERICENTER":275.2357,"MEAN_ANOMALY":84.1413,"EPHEMERIS_TYPE":0,"CLASSIFICATION_TYPE":"U","NORAD_CAT_ID":67821,"ELEMENT_SET_NO":999,"REV_AT_EPOCH":518,"BSTAR":-0.013344019,"MEAN_MOTION_DOT":-0.01866344,"MEAN_MOTION_DDOT":0},{"OBJECT_NAME":"STARLINK-36643","OBJECT_ID":"2026-033B","EPOCH":"2026-03-12T22:00:01.999584","MEAN_MOTION":15.71415998,"ECCENTRICITY":0.00016948,"INCLINATION":42.9991,"RA_OF_ASC_NODE":251.8616,"ARG_OF_PERICENTER":273.9588,"MEAN_ANOMALY":56.9162,"EPHEMERIS_TYPE":0,"CLASSIFICATION_TYPE":"U","NORAD_CAT_ID":67822,"ELEMENT_SET_NO":999,"REV_AT_EPOCH":518,"BSTAR":-0.016268191,"MEAN_MOTION_DOT":-0.01862392,"MEAN_MOTION_DDOT":0},{"OBJECT_NAME":"STARLINK-36646","OBJECT_ID":"2026-033C","EPOCH":"2026-03-12T22:00:01.999584","MEAN_MOTION":15.74460141,"ECCENTRICITY":0.0001681,"INCLINATION":42.9992,"RA_OF_ASC_NODE":251.7914,"ARG_OF_PERICENTER":273.893,"MEAN_ANOMALY":85.0149,"EPHEMERIS_TYPE":0,"CLASSIFICATION_TYPE":"U","NORAD_CAT_ID":67823,"ELEMENT_SET_NO":999,"REV_AT_EPOCH":518,"BSTAR":-0.014269812,"MEAN_MOTION_DOT":-0.01863981,"MEAN_MOTION_DDOT":0},{"OBJECT_NAME":"STARLINK-36647","OBJECT_ID":"2026-033D","EPOCH":"2026-03-12T22:00:01.999584","MEAN_MOTION":15.72580157,"ECCENTRICITY":0.00016762,"INCLINATION":42.9993,"RA_OF_ASC_NODE":251.8149,"ARG_OF_PERICENTER":273.7816,"MEAN_ANOMALY":75.6644,"EPHEMERIS_TYPE":0,"CLASSIFICATION_TYPE":"U","NORAD_CAT_ID":67824,"ELEMENT_SET_NO":999,"REV_AT_EPOCH":518,"BSTAR":-0.015481618,"MEAN_MOTION_DOT":-0.01863193,"MEAN_MOTION_DDOT":0},{"OBJECT_NAME":"STARLINK-36648","OBJECT_ID":"2026-033E","EPOCH":"2026-03-12T20:21:04.957920","MEAN_MOTION":15.82083875,"ECCENTRICITY":0.00020572,"INCLINATION":42.9983,"RA_OF_ASC_NODE":252.1268,"ARG_OF_PERICENTER":269.3372,"MEAN_ANOMALY":90.7265,"EPHEMERIS_TYPE":0,"CLASSIFICATION_TYPE":"U","NORAD_CAT_ID":67825,"ELEMENT_SET_NO":999,"REV_AT_EPOCH":512,"BSTAR":0.00081109631,"MEAN_MOTION_DOT":0.00174293,"MEAN_MOTION_DDOT":0}]
