STARLINK-36807          
1 67810U 26032P   26071.96626885  .00130826  00000+0  86088-3 0  9993
2 67810  97.2845 258.6812 0002528  60.0571 300.0945 15.75287867  5302
STARLINK-36733          
1 67811U 26032Q   26071.91668981  .00170266  00000+0  11240-2 0  9991
2 67811  97.2842 258.6519 0001297  94.3526  38.8872 15.75103406  5307
STARLINK-36377          
1 67812U 26032R   26071.95426251  .00143257  00000+0  94341-3 0  9992
2 67812  97.2848 258.6975 0001714  89.3538 270.7924 15.75236077  5307
STARLINK-36732          
1 67813U 26032S   26071.95920327  .00099679  00000+0  66054-3 0  9994
2 67813  97.2848 258.6897 0001304  80.6935 279.4478 15.75219822  5300
STARLINK-36767          
1 67814U 26032T   26071.97896782  .00105674  00000+0  69991-3 0  9990
2 67814  97.2833 258.6623 0001892 105.0348 255.1127 15.75212523  5307
STARLINK-36797          
1 67815U 26032U   26071.97014448  .00086179  00000+0  57215-3 0  9996
2 67815  97.2841 258.6757 0001724  84.1488 275.9974 15.75217441  5305
STARLINK-36343          
1 67816U 26032V   26071.95037876  .00146171  00000+0  96194-3 0  9993
2 67816  97.2849 258.7010 0001226  81.2594 278.8810 15.75244015  5308
STARLINK-36756          
1 67817U 26032W   26071.96132344  .00192085  00000+0  12567-2 0  9997
2 67817  97.2842 258.6865 0002204  81.0956 279.0559 15.75249489  5297
STARLINK-36346          
1 67818U 26032X   26071.94614367  .00214875  00000+0  14009-2 0  9991
2 67818  97.2849 258.7077 0001607  74.7881 285.3562 15.75267084  5300
STARLINK-36788          
1 67819U 26032Y   26071.90872935  .00167511  00000+0  10987-2 0  9990
2 67819  97.2840 258.6055 0001242 120.4882 239.6506 15.75259890  5296
STARLINK-36353          
1 67820U 26032Z   26071.96837723  .00043972  00000+0  29400-3 0  9999
2 67820  97.2840 258.6768 0001720  98.0000 262.1461 15.75202121  5300
STARLINK-36644          
1 67821U 26033A   26071.91668981 -.01866344  00000+0 -13344-1 0  9991
2 67821  42.9993 251.7906 0001532 275.2357  84.1413 15.76008420  5182
STARLINK-36643          
1 67822U 26033B   26071.91668981 -.01862392  00000+0 -16268-1 0  9999
2 67822  42.9991 251.8616 0001694 273.9588  56.9162 15.71415998  5185
STARLINK-36646          
1 67823U 26033C   26071.91668981 -.01863981  00000+0 -14270-1 0  9996
2 67823  42.9992 251.7914 0001681 273.8930  85.0149 15.74460141  5184
STARLINK-36647          
1 67824U 26033D   26071.91668981 -.01863193  00000+0 -15482-1 0  9998
2 67824  42.9993 251.8149 0001676 273.7816  75.6644 15.72580157  5186
STARLINK-36648          
1 67825U 26033E   26071.84797405  .00174293  00000+0  81110-3 0  9991
2 67825  42.9983 252.1268 0002057 269.3372  90.7265 15.82083875  5121
